ONEWEB-0033             
1 45142U 20008M   26197.06821405  .00000670  00000+0  18818-2 0  9997
2 45142  87.8811  30.5202 0002276  95.8629 264.2757 13.10371710311999
ONEWEB-0035             
1 45143U 20008N   26197.08870348 -.00000157  00000+0 -48483-3 0  9994
2 45143  87.8809  30.5095 0001828  91.0529 269.0808 13.10373717311726
ONEWEB-0036             
1 45144U 20008P   26197.06640661  .00000617  00000+0  17310-2 0  9999
2 45144  87.8830  30.5314 0001737  82.1434 277.9890 13.10373721312141
ONEWEB-0038             
1 45145U 20008Q   26197.00906040  .00000205  00000+0  54347-3 0  9995
2 45145  87.8901  15.3410 0002047 141.7676 218.3598 13.11418965314107
ONEWEB-0039             
1 45146U 20008R   26197.07160964  .00000620  00000+0  17396-2 0  9993
2 45146  87.8816  30.5106 0001324  82.6340 277.4937 13.10370917311947
ONEWEB-0040             
1 45147U 20008S   26197.06481428  .00000683  00000+0  19199-2 0  9996
2 45147  87.8815  30.5222 0001853  76.7791 283.3543 13.10372431311646
ONEWEB-0043             
1 45149U 20008U   26197.06665285  .00000645  00000+0  18124-2 0  9998
2 45149  87.8821  30.5114 0001344  80.2590 279.8689 13.10374992311967
ONEWEB-0044             
1 45150U 20008V   26197.09535609 -.00000539  00000+0 -15792-2 0  9991
2 45150  87.8822  30.5076 0001734  85.5785 274.5541 13.10372819312263
ONEWEB-0045             
1 45151U 20008W   26197.00383180 -.00000008  00000+0 -59174-4 0  9993
2 45151  87.8893  15.3231 0001714  91.2101 268.9223 13.11418754314187
ONEWEB-0047             
1 45152U 20008X   26197.08842323 -.00000095  00000+0 -30777-3 0  9994
2 45152  87.8820  30.5080 0001890  94.2175 265.9168 13.10369232311983
ONEWEB-0048             
1 45153U 20008Y   26197.08348749  .00000167  00000+0  44144-3 0  9999
2 45153  87.8811  30.5275 0001723  92.9100 267.2225 13.10370734311593
ONEWEB-0049             
1 45154U 20008Z   26197.01036347 -.00000047  00000+0 -16965-3 0  9990
2 45154  87.8809  30.5313 0001890  76.5950 283.5388 13.10369223311806
ONEWEB-0051             
1 45155U 20008AA  26197.00213592 -.00000104  00000+0 -32848-3 0  9991
2 45155  87.8887  15.3292 0001835  89.8520 270.2819 13.11419423314869
ONEWEB-0052             
1 45156U 20008AB  26197.26008585 -.00000694  00000+0 -20257-2 0  9998
2 45156  87.8822  30.4696 0001749  76.3158 283.8164 13.10374722311745
ONEWEB-0053             
1 45157U 20008AC  26197.06312120  .00000739  00000+0  20805-2 0  9997
2 45157  87.8814  30.5281 0001463  77.6330 282.4961 13.10372691311694
ONEWEB-0054             
1 45158U 20008AD  26197.09874314 -.00000556  00000+0 -16295-2 0  9996
2 45158  87.8816  30.5069 0001858  86.2557 273.8783 13.10373617311815
